1 48060U 21025U   23305.82528432 -.00000202  00000-0 -58793-3 0  9996
2 48060  87.9001 150.9421 0002294  59.3997 300.7358 13.13470885127754
1 48061U 21025V   23305.81047009  .00000158  00000-0  39869-3 0  9993
2 48061  87.9008 150.9379 0001363  94.6746 265.4539 13.13470851127878
1 48062U 21025W   23305.87607881  .00000381  00000-0  10091-2 0  9993
2 48062  87.9003 150.9112 0001783  89.0895 271.0438 13.13470522127807
1 48063U 21025X   23305.93321096  .00000112  00000-0  27248-3 0  9997
2 48063  87.9004 150.9082 0001414  76.9591 283.1696 13.13469698127794
1 48064U 21025Y   23305.81155538  .00000078  00000-0  17764-3 0  9994
2 48064  87.9007 150.9418 0001429  89.0393 271.0899 13.13469255127769
1 48065U 21025Z   23305.83375287 -.00000343  00000-0 -97299-3 0  9990
2 48065  87.9000 150.9292 0002031  92.9000 267.2361 13.13469013127843
1 48066U 21025AA  23305.83585899 -.00000299  00000-0 -85274-3 0  9993
2 48066  87.9004 150.9373 0001378  71.7353 288.3926 13.13467869127788
1 48067U 21025AB  23305.61367349 -.00000284  00000-0 -81310-3 0  9999
2 48067  87.9004 150.9817 0001620  56.4661 303.6623 13.13470761127717
